SHOP_NAME,ADDRESS,PHONE_NUMBER,TYPE_OF_SHOP,LATITUDE,LONGITUDE
haute(오뜨네일),서울특별시 강남구 신사동 660-6번지 ,02  544 8088,네일미용업,37.5282487335317,127.037641702359
코코네일,서울특별시 서초구 잠원동 8-22 지하1층 ,02  545 4002,네일미용업,37.5180521823343,127.018176182383
포쉬네일 압구정역점,서울특별시 강남구 신사동 603 ANdAZ ,02  547 4142,네일미용업,37.525419895071,127.028869129505
루미가넷,서울특별시 강남구 대치동 910-2 루가빌딩 ,02  547 7107,네일미용업,37.5012830381165,127.053922617497
크라스니,서울특별시 강남구 역삼동 708-23번지 지상1층 ,02  557 2030,네일미용업,37.5033341237987,127.048431312186
호박방,서울특별시 강남구 대치동 905-16 현서빌딩 ,02  562 5855,네일미용업,37.5022250882443,127.054013430067
려네일,서울특별시 서초구 방배동 790-24 1층 ,02  585 4141,네일미용업,37.4921835089874,126.986538875285
안O네일,서울특별시 종로구 창신동 5-2 ,02  60527778,네일미용업,37.579939264493,127.014890226926
눈시울,서울특별시 강남구 청담동 15-5 ,02  545 3436,"네일미용업, 화장ㆍ분장 미용업",37.5208163472908,127.046541271581
트윙클,서울특별시 동작구 사당동 1044-22 ,02  587 2313,"네일미용업, 화장ㆍ분장 미용업",37.4772392390647,126.979310086214
나나,서울특별시 성북구 동선동1가 84-1 ,02  60138698,"네일미용업, 화장ㆍ분장 미용업",37.5914193197327,127.019478579665
미 아뜨리에,서울특별시 중구 신당동 844 남산타운 ,02  5460018,미용업,37.5486807945139,127.008880476432
성수미용실,"서울특별시 강남구 논현동 227-4번지 ,1층1호 ",02  549 9602,미용업,37.5100185337311,127.034777103899
거꾸로헤어,서울특별시 강남구 논현동 181-3 미라클하우스 ,02  544 8283,일반미용업,37.5074804089667,127.025999409608
슈어뷰티살롱,서울특별시 강남구 논현동 110-24 ,02  545 0700,일반미용업,37.5184969488988,127.039733210364
에이영살롱,서울특별시 강남구 신사동 551-7 ,02  545 2951,일반미용업,37.5218948348727,127.023934379067
헤링크,서울특별시 강남구 청담동 68-9 더하우스 ,02  545 5105,일반미용업,37.5233039333064,127.054329873875
이가자 아뜰리에 청담,서울특별시 강남구 청담동 132-19 지상3층 ,02  545 5573,일반미용업,37.5211343581316,127.057111655155
모클락 강남본점,서울특별시 강남구 논현동 164 영동빌딩 ,02  545 5749,일반미용업,37.5086426988926,127.022988454509
동방의미용사,서울특별시 강남구 논현동 66 선주빌딩 ,02  545 6668,일반미용업,37.5188351220487,127.02876625679
가희,서울특별시 강남구 논현동 124-18번지 ,02  545 9527,일반미용업,37.5116429551293,127.024332070025
스타일 비,서울특별시 강남구 삼성동 10-20번지 ,02  546 1182,일반미용업,37.5153250043325,127.043462325964
헤어스크린,서울특별시 송파구 잠실동 224-7번지 1층 ,02  546 5222,일반미용업,37.5074017331075,127.081488543855
에이그로우(A.Grow),서울특별시 강남구 논현동 183-7번지 남광빌딩 1층 ,02  547 8550,일반미용업,37.5067246895866,127.02538456341
티나스타일,서울특별시 강남구 논현동 123-7 ,02  547 9448,일반미용업,37.5109803043586,127.024147152518
헤어스테이지,서울특별시 강남구 압구정동 369-1 현대아파트 ,02  548 4558,일반미용업,37.5330267381014,127.027925536556
수성헤어,서울특별시 강남구 삼성동 150-12번지 지상1층 ,02  548 7787,일반미용업,37.5114755967254,127.055224684092
주니헤어,서울특별시 강남구 논현동 219-8 ,02  549 0081,일반미용업,37.5120689155071,127.034585771921
청담라온헤어,서울특별시 강남구 청담동 132-3 청담상가 ,02  549 2393,일반미용업,37.5224060127026,127.056404584991
나나헤어,서울특별시 강남구 신사동 536-19 ,02  54977779,일반미용업,37.5190627608963,127.022776952122
장한나헤어,서울특별시 강남구 대치동 916-40번지 ,02  553 0387,일반미용업,37.5007735042249,127.057396738928
에스엠 프로헤어 대치점,서울특별시 강남구 대치동 1014-3번지 대치삼성아파트 ,02  553 3215,일반미용업,37.4963870034067,127.058401866149
비엠헤어,서울특별시 강남구 역삼동 751-10 ,02  553 3531,일반미용업,37.4949873420582,127.035630121827
로얄미용실,서울특별시 강남구 삼성동 116-28번지 ,02  553 5706,일반미용업,37.5116534722103,127.051599955962
코코헤어,서울특별시 강남구 역삼동 741-2번지 ,02  554 3012,일반미용업,37.4974504715744,127.033938398064
텍스쳐 압구정로데오점,서울특별시 강남구 신사동 639 YOHAN빌딩 ,02  555 0774,일반미용업,37.5287035028085,127.035794470051
헤어바이트(Hair VITE),서울특별시 강남구 대치동 910-15 ,02  555 1788,일반미용업,37.5009256224752,127.053893296081
이화미용실,서울특별시 강남구 대치동 316 은마아파트 ,02  555 5083,일반미용업,37.4974180026259,127.065327020175
드 김현서헤어,서울특별시 강남구 대치동 66번지 ,02  555 5114,일반미용업,37.4980831440783,127.071219190993
헤드마스터,서울특별시 강남구 대치동 936-3 ,02  555 7892,일반미용업,37.4975437445053,127.052989231694
오자허브,서울특별시 강남구 대치동 316 은마아파트 ,02  556 1772,일반미용업,37.4974180026259,127.065327020175
에코쟈뎅 대치테라스점,서울특별시 강남구 대치동 507 윈플러스상가 ,02  556 5326,일반미용업,37.4933577446877,127.06190904547
온 헤어,서울특별시 강남구 삼성동 122 ,02  556 8817,일반미용업,37.5109059403404,127.051734150676
반에스,서울특별시 강남구 논현동 2-12 ,02  556 9787,일반미용업,37.5160003072712,127.021511635728
쎄미헤어,서울특별시 강남구 대치동 63-0번지 우성아파트단지상가 108호 ,02  557 5686,일반미용업,37.5002337297672,127.069139134413
셀비오,서울특별시 송파구 삼전동 28-11 에스엔씨빌딩 ,02  5576334,일반미용업,37.5034202431043,127.087586017301
영웅,서울특별시 강남구 대치동 959-1 ,02  558 0401,일반미용업,37.5046684822867,127.058091080451
색갈은짙은갈색,서울특별시 광진구 자양동 859번지 2층 204A호,02  558 3379,일반미용업,37.537711863986,127.081548897452
온새미로 by 수빈,서울특별시 중랑구 면목동 177-13 정아트빌 ,02  558 6797,일반미용업,37.5877229769548,127.078005679618
애런스로렌콤 그랜드인터컨티넨탈호텔점,서울특별시 강남구 삼성동 159-8 파르나스타워 ,02  559 7555,일반미용업,37.5125211887102,127.058819250731
르미르헤어,서울특별시 송파구 문정동 10-18 ,02  560 4977,일반미용업,37.4898250724797,127.127623972306
민헤어샵,서울특별시 강남구 대치동 316번지 ,02  561 9564,일반미용업,37.4974180026259,127.065327020175
데일리 헤어,서울특별시 강남구 대치동 991-4 태안빌딩 ,02  565 8788,일반미용업,37.4995128019312,127.063751255359
오아임(OIM),서울특별시 강남구 대치동 956-24 ,02  566 0424,일반미용업,37.5056473209544,127.059921653442
미씨엘로 헤어,서울특별시 송파구 문정동 643-1번지 ,02  566 8973,일반미용업,37.4858221249142,127.120631584468
이철헤어커커 선릉역점,서울특별시 강남구 역삼동 707-12 ,02  568 2326,일반미용업,37.5024189302843,127.044888187758
앤즈헤어,서울특별시 강남구 도곡동 168번지 ,02  570 9790,일반미용업,37.4884719849921,127.048732664169
리파이너리 도곡점,서울특별시 강남구 도곡동 464번지 ,02  572 0711,일반미용업,37.4868899273565,127.048897057659
나이스가이,서울특별시 서초구 우면동 67 한라상가 106호,02  573 4339,일반미용업,37.4715308560823,127.025890636987
선화,서울특별시 서초구 양재동 11-85 1층 ,02  574 7007,일반미용업,37.4839739214796,127.037798800614
라떼르헤어 우면점,서울특별시 서초구 우면동 686 삼성프라자-1 204호,02  575 1231,일반미용업,37.4653739980978,127.021275794783
은교 미용실,서울특별시 강남구 도곡동 902-2 ,02  575 9418,일반미용업,37.4864263541376,127.03814738462
벨꾸르 헤어,서울특별시 서초구 양재동 255-6번지 102호,02  5750922,일반미용업,37.4735748227152,127.042843723149
쎄븐헤어월드,서울특별시 서초구 우면동 2-4 2층 ,02  5769774,일반미용업,37.4695438938705,127.024882053868
피렌체 헤어샵,서울특별시 강남구 개포동 1218-24번지 ,02  578 5365,일반미용업,37.4777742967652,127.048545052934
제오헤어 압구정,서울특별시 강남구 신사동 661-13번지 지상1층 ,02  578 9338,일반미용업,37.5274919853346,127.039019824616
DBS 2.0(데비스미용실),서울특별시 서초구 양재동 87-9 르네상스정보기술 ,02  579 2040,일반미용업,37.4801878302991,127.042210632969
21세기 헤어칼라,서울특별시 서초구 양재동 341-6번지 1층 ,02  579 3409,일반미용업,37.4691153203315,127.044896527003
미스네일,서울특별시 동작구 사당동 1032-34번지 ,02  584 4141,일반미용업,37.4784548581385,126.980228566478
머리나라,서울특별시 동작구 사당동 321-114번지 ,02  5846077,일반미용업,37.4831243260075,126.975807996545
단심머리방,서울특별시 서초구 서초동 1481-2번지 (1층) ,02  585 3037,일반미용업,37.4827747236936,127.008766390429
지니샵,서울특별시 동작구 사당동 1147 ,02  587 6559,일반미용업,37.4869196887028,126.968370617854
닥터모락 강남점,서울특별시 서초구 서초동 1337-22 서초동대우디오빌프라임 202호,02  587 7637,일반미용업,37.4915797722064,127.029972734806
준오헤어,서울특별시 서초구 방배동 935-40번지 3층 ,02  588 0605,일반미용업,37.4864057864115,126.994116787223
제이 헤어 아틀리에,서울특별시 서초구 서초동 1511-11번지 1층 ,02  588 3389,일반미용업,37.4870711481734,127.007977662952
일리아 바이 예민,서울특별시 서초구 서초동 1601-10번지 111호,02  588 8702,일반미용업,37.485476485833,127.015045922221
진헤어룩,서울특별시 동작구 사당동 91-160 ,02  591 1828,일반미용업,37.4885575755163,126.980096775483
헤어 그린,서울특별시 서초구 방배동 1448 1층 ,02  591 3906,일반미용업,37.4872179617085,126.98365206266
참빗헤어,서울특별시 서초구 방배동 814-22번지 1층 ,02  591 5060,일반미용업,37.4919376829777,126.989830491303
작품하나,"서울특별시 동작구 사당동 105 사당우성아파트상가 3단지215호,216호,217호 ",02  592 4931,일반미용업,37.4896946254326,126.975650061703
예다움 헤어,서울특별시 서초구 우면동 765 서초 미라쉘 103호,02  592 7005,일반미용업,37.4564778867905,127.015923167836
준오헤어 교대점,서울특별시 서초구 서초동 1689-1 정우빌딩 2층 ,02  593 1605,일반미용업,37.495165831757,127.017648194017
헤어 코코,서울특별시 서초구 반포동 2-8번지 신반포상가 1층 168호,02  593 2067,일반미용업,37.5054211041961,126.994551287374
머리가(家),서울특별시 서초구 반포동 60-4번지 미도상가 1층 6-4호 ,02  593 6226,일반미용업,37.5013542148345,127.008779079669
J-에크리,서울특별시 서초구 반포동 93-7번지 5층(503호) ,02  596 5002,일반미용업,37.4995654031007,126.998445818341
김민희헤어클럽,서울특별시 동작구 사당동 161-77번지 제일미용실 ,02  596 6167,일반미용업,37.4861856060751,126.976774539096
비엠 헤어다이스 서초점,서울특별시 서초구 서초동 1337-22 107호,02  597 3531,일반미용업,37.4915797722064,127.029972734806
신승원 컷앤컷,서울특별시 서초구 서초동 1328-11 대우도씨에빛2차 지층 비109호,02  597 7879,일반미용업,37.4947838240548,127.028598036455
SECOND#(세컨드샵),서울특별시 서초구 서초동 1510-9 2층 ,02  598 9892,일반미용업,37.4873025655019,127.00870902741
모던헤어,서울특별시 동작구 사당동 317-1 ,02  599 4427,일반미용업,37.4824187429085,126.973283976932
드웰헤어,서울특별시 마포구 연남동 224-23번지 ,02  60110366,일반미용업,37.563996524853,126.926441819614
미가본 헤어아트,서울특별시 동작구 상도동 351-7 ,02  60121529,일반미용업,37.5016580665609,126.932939202902
해연헤어,서울특별시 구로구 개봉동 203-15 ,02  60123603,일반미용업,37.4939415983663,126.857860694468
늘꾸미다,서울특별시 강동구 상일동 280 아주빌딩 ,02  60127676,일반미용업,37.5496149222842,127.170984990267
이룸헤어,서울특별시 강북구 수유동 254-43번지 ,02  60131869,일반미용업,37.6456884450137,127.019977256725
비샵(B#),서울특별시 강북구 미아동 84-10번지 ,02  60147758,일반미용업,37.6148384581882,127.034878982158
티아브헤어,서울특별시 강북구 미아동 777-18 ,02  60149062,일반미용업,37.6251038480413,127.01807670412
master hand 마스터 핸드,서울특별시 마포구 합정동 393-24번지 1층 ,02  60150952,일반미용업,37.5497440727659,126.909655735588
니즈온헤어(NEEDS ON HAIR),서울특별시 강북구 미아동 211-63 2층 ,02  60151008,일반미용업,37.6260077651897,127.024765555498
헤어에스 (hair S),서울특별시 영등포구 당산동4가 88번지 당산현대아파트상가 106호,02  60155585,일반미용업,37.5310603162321,126.89638327158
메종드헤어0403 암사점,서울특별시 강동구 암사동 466-9 102호,02  60156820,일반미용업,37.5535351017798,127.13011737611
피가로스,서울특별시 광진구 화양동 36-39 102호,02  60325051,일반미용업,37.5434867147309,127.067435335487
헤어 주,서울특별시 강서구 내발산동 677-19번지 1층 ,02  60414004,일반미용업,37.5538050751402,126.837417305771
미고헤어?,서울특별시 영등포구 신길동 4066 101호,02  60521712,일반미용업,37.498617684798,126.916623054784
나연헤어,서울특별시 노원구 공릉동 340-17번지 2층 ,02  60521800,일반미용업,37.6234929732622,127.079650660486
헤어명가,서울특별시 영등포구 대림동 1066-68 ,02  60526788,일반미용업,37.489597754797,126.898491618064
위(WE)헤어(중곡점),서울특별시 광진구 중곡동 30-60번지 1층 ,02  60533313,일반미용업,37.5641386173304,127.083823767703
라비앙르로즈,서울특별시 마포구 창전동 2-3번지 ,02  60535053,일반미용업,37.5532183520963,126.933272828626
BB.HAIR(비비헤어),서울특별시 강북구 미아동 860-241 201호,02  60536808,일반미용업,37.6125240879784,127.031007927351
리안헤어(구수동사거리점),서울특별시 마포구 구수동 74-2번지 정호빌딩 ,02  60537043,일반미용업,37.545215848769,126.932769167454
JM 헤어갤러리,서울특별시 은평구 구산동 321-96 ,02  60538585,일반미용업,37.6154141079498,126.90833712033
오샤론헤어,서울특별시 양천구 신정동 120-73번지 1층 ,02  60717141,일반미용업,37.5208424032101,126.874961876351
블룸네일(BLOOM NAIL),서울특별시 강남구 역삼동 664-12번지 ,02  565 4141,"일반미용업, 네일미용업",37.5050859807531,127.039103727465
아히나헤어 잠실본점,서울특별시 송파구 잠실동 40 갤러리아팰리스 지하1층 27호,02  566 3518,"일반미용업, 네일미용업",37.5111038313694,127.093918656887
리안헤어종암하월곡점,서울특별시 성북구 하월곡동 90-117 아이앤티(강북) ,02  60152070,"일반미용업, 네일미용업",37.6059606638794,127.031637023491
토니 앤 가이(TONI & GUY) 서초점,서울특별시 서초구 서초동 1682 301호,02  568 7262,"일반미용업, 네일미용업, 화장ㆍ분장 미용업",37.4985563082368,127.018886847051
미색찬란 헤어메이크업,서울특별시 강남구 역삼동 609 ,02  569 4036,"일반미용업, 네일미용업, 화장ㆍ분장 미용업",37.5057399160081,127.032946546152
"살롱 드 라움, 부티끄","서울특별시 서초구 내곡동 342-1번지 304호, 305호 ",02  573 2999,"일반미용업, 네일미용업, 화장ㆍ분장 미용업",,
스카터 라운지,서울특별시 강남구 역삼동 652-6 ,02  575 4762,"일반미용업, 피부미용업, 화장ㆍ분장 미용업",37.5078955823682,127.037157697832
다니엘186(daniel186),서울특별시 강남구 논현동 181-7 ,02  544 7563,"일반미용업, 화장ㆍ분장 미용업",37.5077477148501,127.026903634148
샤샤메이크업,서울특별시 노원구 공릉동 513-48 주인맨션 G-17호,02  546 2587,"일반미용업, 화장ㆍ분장 미용업",37.624441836424,127.07548746584
메이크업하우스,서울특별시 광진구 군자동 200-2 ,02  546 6662,"일반미용업, 화장ㆍ분장 미용업",37.5555390609507,127.078029725156
유림,서울특별시 강남구 청담동 46-11 근정 빌딩 ,02  547 1367,"일반미용업, 화장ㆍ분장 미용업",37.5194408603474,127.049030052105
앳나운,서울특별시 강남구 청담동 1-1 퍼스트빌딩 ,02  547 8718,"일반미용업, 화장ㆍ분장 미용업",37.5228637283635,127.039527943261
아티코 뷰티,서울특별시 강남구 역삼동 660-2번지 ,02  557 8666,"일반미용업, 화장ㆍ분장 미용업",37.5051612111638,127.035996981129
바이소나,서울특별시 강남구 역삼동 655-23 ,02  569 1523,"일반미용업, 화장ㆍ분장 미용업",37.5073607787015,127.038738241486
헤어aA,서울특별시 서초구 신원동 609 프라임시티 106호,02  575 6555,"일반미용업, 화장ㆍ분장 미용업",37.4479365324169,127.055781875709
차홍아르더 청담점,서울특별시 강남구 청담동 96-24번지 ,02  544 8520,종합미용업,37.5251384658765,127.045593119445
제이네일,서울특별시 강남구 삼성동 25-23번지 ,02  548 1122,종합미용업,37.5144663148205,127.049927164604
보보리스(BOBORIS),서울특별시 강남구 신사동 631-23 ,02  549 7889,종합미용업,37.5232392982105,127.034541152852
김수현헤어,서울특별시 강남구 삼성동 92-7번지 ,02  549 7891,종합미용업,37.5170518962877,127.062823695947
타스헤어,서울특별시 강남구 대치동 935번지 ,02  552 8088,종합미용업,37.4981316202397,127.054248416157
재키헤어,서울특별시 강남구 대치동 316 은마아파트 ,02  555 2462,종합미용업,37.4974180026259,127.065327020175
헤어힐링랩,서울특별시 강남구 역삼동 761-19번지 ,02  556 0382,종합미용업,37.495873260455,127.046391332002
헤어카리스,서울특별시 강남구 대치동 897-2번지 지상1층 ,02  556 3859,종합미용업,37.5026934119137,127.050174689666
디데이 헤어메이크업,서울특별시 강남구 역삼동 809-11 ,02  556 3999,종합미용업,37.5031203805459,127.025879714069
이후헤어작품실,서울특별시 강남구 역삼동 788-22번지 .지상1층 ,02  558 1665,종합미용업,37.4934409300556,127.041470746518
이철헤어커커 대치라운지,서울특별시 강남구 대치동 922-1 SH타워 ,02  558 2326,종합미용업,37.4987632019667,127.052099075046
컷트세상,서울특별시 강남구 역삼동 799-21번지 .지상1층 ,02  561 6011,종합미용업,37.4919532775311,127.038542687252
살롱6(역삼3호점),서울특별시 강남구 역삼동 645-19 ,02  563 6001,종합미용업,37.5009288838705,127.0336664052
수네일바이현,서울특별시 강남구 삼성동 122-11 ,02  564 6270,종합미용업,37.5110441201523,127.052221507858
블루클럽 (선릉점),서울특별시 강남구 삼성동 143-17번지 ,02  565 2866,종합미용업,37.5067695765566,127.052621391678
류경 미용연구소,서울특별시 강남구 역삼동 702-23번지 ,02  567 0721,종합미용업,37.5041703457441,127.046414447665
메디스파,서울특별시 강남구 역삼동 824-25 지하1층 ,02  567 2747,종합미용업,37.4975829773073,127.031110404052
SOON헤어,서울특별시 서초구 양재동 18-5 성영빌라트 106호 ,02  5718698,종합미용업,37.4823847083022,127.040030204014
고운미용실,서울특별시 서초구 양재동 290-6 1층 ,02  573 8794,종합미용업,37.4729003813705,127.047193115687
예가미용실,서울특별시 서초구 양재동 9-3 1층 ,02  5734844,종합미용업,37.4825480969104,127.038568382636
대원헤어?,서울특별시 서초구 양재동 6-37번지 208호 ,02  5736705,종합미용업,37.4816509816493,127.041181235517
킴스미용실,서울특별시 서초구 양재동 366 황해빌라 103호,02  574 5606,종합미용업,37.4693886259622,127.045527020907
성희 헤어카페,서울특별시 광진구 자양동 636-17 ,02  575 8019,종합미용업,37.5312858818653,127.080697334312
멋을아는 사람들과,서울특별시 서초구 양재동 108-5 ,02  5757042,종합미용업,37.4771748372729,127.037452592516
살롱J,서울특별시 서초구 양재동 154-2 2층 4호 ,02  576 6013,종합미용업,37.4766180245617,127.029457335464
양재남성헤어커트,서울특별시 서초구 양재동 23 양재역환승주차장 1층  109-1호 ,02  57774339,종합미용업,37.4833930904418,127.034393681235
코코미용실,서울특별시 서초구 양재동 3-18 101호 ,02  578 5225,종합미용업,37.4822762898275,127.042180037134
파티마스킨앤바디,서울특별시 강남구 도곡동 527-3번지 도곡렉슬상가 1층107호 ,02  578 7736,종합미용업,37.4953408441024,127.052652046122
박승철헤어스튜디오 양재점,서울특별시 강남구 도곡동 953-1번지 ,02  579 3920,종합미용업,37.4853093524453,127.034403378938
컷트잘하는헤어밴(van),서울특별시 강남구 도곡동 902-55번지 ,02  579 5331,종합미용업,37.4864367385024,127.038631891278
레몬,서울특별시 서초구 방배동 807-9 지층 ,02  582 0041,종합미용업,37.4936210421353,126.993850709465
청호건강관리포토샵,서울특별시 서초구 방배동 905-4번지 202호,02  583 4174,종합미용업,37.4846325876719,126.995912534623
김선영미용실,서울특별시 서초구 방배동 913-1번지 ,02  583 9044,종합미용업,37.4824584966305,126.994719610408
류승희헤어모드,서울특별시 서초구 방배동 1007-2번지 103호 ,02  584 2235,종합미용업,37.4780485375001,127.006485035814
네일파라티 교대역서초점,서울특별시 서초구 서초동 1671-5 서초리시온 2층 211호 ,02  585 1555,종합미용업,37.4934729686325,127.015440252256
까만머리헤어?,서울특별시 동작구 사당동 419-154 ,02  586 6345,종합미용업,37.4773919330769,126.976741874423
브니엘미용실,서울특별시 서초구 방배동 987-2 신동아빌딩 상가1층 102호,02  587 3888,종합미용업,37.4806948894297,127.000211762355
카라헤어샵,서울특별시 서초구 방배동 898-7번지 (1층) ,02  587 6170,종합미용업,37.4868156737819,126.994506280348
하수연미용실,서울특별시 서초구 서초동 1487-18번지 102호,02  587 6958,종합미용업,37.4824464775881,127.006025022715
이사라피부가꾸기,서울특별시 서초구 서초동 1685-3 아크로비스타 지하1층 124호 ,02  591 1004,종합미용업,37.4982001790622,127.01331462624
샴푸로 염색하세요  신타 방배동점,서울특별시 서초구 방배동 796-1번지 1층 ,02  591 2004,종합미용업,37.4939477629416,126.990101272711
아이디헤어미용실,서울특별시 서초구 반포동 55-6번지 하성빌딩 2층 ,02  591 4036,종합미용업,37.5027913596535,127.01049114926
반포헤어타운,서울특별시 서초구 반포동 2-8번지 신반포상가 1층 152호 ,02  591 6388,종합미용업,37.5054211041961,126.994551287374
유혜미용실,서울특별시 서초구 방배동 854-19 (4층) ,02  593 4528,종합미용업,37.4885069460827,126.991334817893
사틴헤어 문정역점,서울특별시 송파구 문정동 643-1번지 ,02  594 0620,종합미용업,37.4858221249142,127.120631584468
준오헤어,"서울특별시 서초구 방배동 3000-1번지 한신휴플러스 2층 201,202,203호 ",02  595 0605,종합미용업,37.486646440949,126.98293487437
김계남헤어,"서울특별시 서초구 방배동 866-20번지 (7호,8호,20호~23호) 방배대우디오빌 111호,112호 ",02  595 8683,종합미용업,37.486044022746,126.984200927218
송해영 헤어뉴스,서울특별시 서초구 방배동 1022번지 1층 101호 ,02  597 5478,종합미용업,,
제니퍼 에스테틱. 스파,서울특별시 서초구 방배동 1021-10 3층 ,02  598 0809,종합미용업,37.479344727134,127.000232222131
살롱드정지영,서울특별시 서초구 방배동 1020-4 103호 ,02  598 4478,종합미용업,37.4784781330528,127.000911580048
써니헤어,서울특별시 서초구 방배동 789-16번지 101호 ,02  599 0277,종합미용업,37.4923051314059,126.985657862621
아미가헤어,서울특별시 서초구 방배동 839-33 지니빌 ,02  599 5549,종합미용업,37.4910099246596,126.993883037131
뉴마샬,서울특별시 서초구 방배동 437-2 보우빌 101호,02  5994668,종합미용업,37.4826025355366,126.982940316669
Nail B#,서울특별시 마포구 상암동 2-222번지 3층 ,02  60131436,종합미용업,37.5790589137254,126.894593751031
쭈니헤어,서울특별시 성북구 종암동 3-166번지 2층 ,02  60527308,종합미용업,37.6006262883444,127.034125290439
로지슈가링(Rosy Sugaring),서울특별시 강남구 청담동 31-16번지 ,02  545 1626,피부미용업,37.5198615000851,127.048905782683
끌레르몽드,서울특별시 강남구 청담동 61-4 ,02  545 2310,피부미용업,37.5219461168076,127.049634183078
리폼더헤어,서울특별시 강남구 청담동 125-11 ,02  545 5848,피부미용업,37.5252917176295,127.052553172996
장해주의 퍼밍&펌 밸런스,서울특별시 강남구 논현동 243-3 제이제이포리원 ,02  545 9685,피부미용업,37.5153761754009,127.039096540433
어바웃왁싱,서울특별시 강남구 신사동 515-9 ,02  546 0830,피부미용업,37.5181107800452,127.022202933621
스파나무 청담점,서울특별시 강남구 삼성동 20-5 강남대학교 청담 카이로스 빌딩 ,02  546 5625,피부미용업,37.5162457666281,127.050633729729
선에스테스파,서울특별시 서초구 반포동 52-7번지 진일빌딩 901호,02  552 1136,피부미용업,37.5018790031421,127.011440998224
아덴,"서울특별시 서초구 서초동 1330-4 ,5호 아르누보씨티2 B102호, B103호 ",02  553 1118,피부미용업,37.4935157779452,127.02809276455
해오름,서울특별시 강남구 대치동 316 은마아파트 ,02  553 5291,피부미용업,37.4974180026259,127.065327020175
샤인스킨앤바디,서울특별시 강남구 신사동 660-17 압구정로데오스타 ,02  553 7256,피부미용업,37.5284568003188,127.036990729017
오아시스 테라피,서울특별시 강남구 삼성동 112-5번지 ,02  554 6971,피부미용업,37.5102950552506,127.045388417533
쎄레니크,서울특별시 강남구 대치동 1024번지 지하1층 B05-1 ,02  555 4646,피부미용업,37.496688097745,127.055263776459
김수연 뷰티캐슬,서울특별시 강남구 신사동 524-13 ,02  555 5271,피부미용업,37.5211294497673,127.021994440185
더마힐스 에스테틱,서울특별시 동대문구 청량리동 235-4 미주상가 4-4B호,02  555 5489,피부미용업,37.5821297708223,127.047103819399
헤리케어,서울특별시 강남구 대치동 316 은마아파트 ,02  555 6655,피부미용업,37.4974180026259,127.065327020175
피엔뷰티,서울특별시 강남구 역삼동 830-51 ,02  556 5562,피부미용업,37.4944167479131,127.032782805463
토탈 케어,서울특별시 송파구 방이동 39-2번지 신동아타워 지하3층 (수양사우나 내) ,02  556 6600,피부미용업,37.5156366783812,127.110586019553
퍼블릭왁싱디데이점,서울특별시 강남구 대치동 896번지 남양빌딩 ,02  5568611,피부미용업,37.5034637474537,127.051693616414
아이리스,서울특별시 강남구 대치동 900-7번지 ,02  558 2257,피부미용업,37.5024191771491,127.052182024581
알파피부관리실,서울특별시 강남구 대치동 606-1번지 지하1층 ,02  563 1773,피부미용업,37.4942280920907,127.061785261806
스파드자이(SPAdeXI),서울특별시 강남구 역삼동 840-10번지 ,02  563 4785,피부미용업,37.4911647916977,127.036018193079
비오스 라운지 강남역 본점,서울특별시 강남구 역삼동 827-37 ,02  564 1180,피부미용업,37.4966052067,127.031104004959
미플 한티역점,서울특별시 강남구 대치동 938-18번지 지상2층 ,02  564 4977,피부미용업,37.4975650600441,127.056002082263
다미,서울특별시 종로구 창신동 446-1번지 ,02  565 9708,피부미용업,37.57088399691,127.010759121127
삿에스떼,서울특별시 강남구 삼성동 155-13 송영빌딩 ,02  566 1096,피부미용업,37.5095569208496,127.056341869329
뷰티엘,서울특별시 강남구 역삼동 770-17 ,02  567 1893,피부미용업,37.4962517423289,127.041381494345
테라스피부샵,서울특별시 강남구 대치동 316번지 ,02  567 6155,피부미용업,37.4974180026259,127.065327020175
ESTTIO(에스띠오),서울특별시 강남구 신사동 547-12번지 ,02  569 6466,피부미용업,37.5227266997253,127.023186103867
리퍼블릭 왁싱,서울특별시 강남구 역삼동 619-14번지 ,02  569 7672,피부미용업,37.5017927667439,127.027397520261
하임앤 힐링 에스테틱,서울특별시 강남구 개포동 1249-3번지 ,02  571 5740,피부미용업,37.4792715503782,127.046868009229
안나스킨케어,서울특별시 강남구 도곡동 467-7번지 ,02  571 5851,피부미용업,37.4886726430993,127.052102242886
쏘울 에스테틱,서울특별시 서초구 양재동 377-4 2층 ,02  572 0353,피부미용업,37.4718742483576,127.045980491248
힐링스킨앤바디,서울특별시 강남구 개포동 1227-11번지 ,02  575 9952,피부미용업,37.4760484590686,127.047095268916
영동피부앤바디,서울특별시 강남구 도곡동 876-15 ,02  576 5677,피부미용업,37.4892103555831,127.040385278036
스파 헤븐,서울특별시 강남구 도곡동 467-19 현대비전21 ,02  578 6466,피부미용업,37.4882232479436,127.054439125962
슬림엠,"서울특별시 서초구 반포동 105-4 3,4층 ",02  581 1277,피부미용업,37.498502291444,126.997590221388
다미인,서울특별시 서초구 방배동 1460-1번지 2층(전부 임대) ,02  583 2840,피부미용업,37.4872387560628,126.983515808321
결이고은에스테틱 청담점,서울특별시 강남구 청담동 87-4번지 S&S TOWER 지상9층 ,02  583 5085,피부미용업,37.5237044000071,127.04048474879
에스테틱끄 코코,서울특별시 서초구 반포동 20-45 반포자이플라자 ,02  583 8808,피부미용업,37.5071275939835,127.00984142892
고은피부관리,서울특별시 동작구 사당동 1022-44번지 1층 ,02  585 1466,피부미용업,37.4809142161744,126.977982869213
썬 중국정통힐링원,서울특별시 서초구 서초동 1659-6번지 초원빌딩 3층 ,02  588 2253,피부미용업,37.4931467126844,127.015449909912
마나핸즈,서울특별시 서초구 방배동 792-1 ,02  595 1140,피부미용업,37.4919357764071,126.986934690857
SECOND#(세컨드샵),서울특별시 서초구 서초동 1510-9번지 2층 ,02  598 9892,피부미용업,37.4873025655019,127.00870902741
스파루체,서울특별시 동작구 사당동 147-53 ,02  599 1536,피부미용업,37.484760958426,126.981520500294
곽유정에스테틱,서울특별시 마포구 동교동 169-17번지 302호,02  60131253,피부미용업,37.5566741497865,126.925333563263
에스띠유,서울특별시 송파구 방이동 62-12번지 동도빌딩 ,02  60133639,피부미용업,37.5136671764042,127.108838388889
제이제이 브로우바,서울특별시 성북구 동선동2가 135-26번지 2층 ,02  60144966,피부미용업,37.5907802933214,127.019189571458
아나덴 슈가링 왁싱 홍대점,서울특별시 마포구 서교동 355-27 6층 601호,02  60152228,피부미용업,37.5537819714184,126.921075341337
미윈에스테틱,서울특별시 강북구 수유동 177-17 2층 ,02  60159015,피부미용업,37.6411114390544,127.025606859253
코델리아,서울특별시 마포구 상암동 1587번지 ,02  60160089,피부미용업,37.5823228908933,126.886661453906
알엑스퍼트 Rxpert,서울특별시 강남구 신사동 636-7 에이플러스빌딩 ,02  60220897,피부미용업,37.527232088331,127.033923716274
뷰티클럽,서울특별시 마포구 연남동 260-54번지 ,02  60323535,피부미용업,37.5607065954882,126.924677615123
투네일,서울특별시 강남구 삼성동 144-14번지 ,02  553 2259,"피부미용업, 네일미용업",37.5080139474441,127.055395518763
올리브 불 한증막,서울특별시 강남구 역삼동 663-15 ,02  555 4562,"피부미용업, 네일미용업",37.5061288811203,127.039683563787
비긴바이오네일(Begin Bio Nail),서울특별시 서초구 서초동 1336 래미안 리더스원 2층 222호 ,02  585 8222,"피부미용업, 네일미용업",,
바니샵,서울특별시 서대문구 대현동 54-23 ,02  60149875,"피부미용업, 네일미용업",37.557456458443,126.946141844387
토리왁싱,서울특별시 종로구 종로1가 24번지 지하1층 117-2호,02  60323111,"피부미용업, 네일미용업",37.5704589394035,126.979850194195
핑거(FINGER) 6,서울특별시 강북구 번동 444-19 ,02  60801103,"피부미용업, 네일미용업",37.636208375027,127.027963313969
리엔1,서울특별시 강남구 역삼동 810-10 ,02  552 9997,"피부미용업, 화장ㆍ분장 미용업",37.5030693303145,127.026526256262
리엔,서울특별시 강남구 역삼동 810-10 ,02  552 9997,"피부미용업, 화장ㆍ분장 미용업",37.5030693303145,127.026526256262
세랑 메이크업(SERANG Makeup),서울특별시 용산구 한강로3가 98 ,02  545 7999,화장ㆍ분장 미용업,37.5259402145642,126.967620397573
규희,서울특별시 서초구 잠원동 9-4 유명빌딩 ,02  545 8474,화장ㆍ분장 미용업,37.5175264710354,127.01741772478
우현증MERCI,서울특별시 강남구 신사동 628-2 ,02  546 7740,화장ㆍ분장 미용업,37.5221907909645,127.031686347376
바이수이(BYSOOE),서울특별시 성동구 하왕십리동 1070번지 센트라스 ,02  566 6352,화장ㆍ분장 미용업,37.5663313038338,127.028440866987
